STARLINK-3848           
1 52362U 22045AH  26161.19043341 -.00000071  00000+0  13651-4 0  9990
2 52362  53.1627 133.8163 0001583  75.4173 284.6994 15.08828233229884
STARLINK-3830           
1 52363U 22045AJ  26161.13798557 -.00001635  00000+0 -84700-4 0  9992
2 52363  53.1616 144.0498 0001221  84.8576 275.2555 15.08829034229742
STARLINK-3820           
1 52364U 22045AK  26161.17569502  .00001129  00000+0  89059-4 0  9991
2 52364  53.1632 133.7918 0001612  88.4717 271.6459 15.08836473229887
STARLINK-3874           
1 52365U 22045AL  26161.19778184 -.00000877  00000+0 -37029-4 0  9993
2 52365  53.1642 133.7820 0001155  89.4563 270.6561 15.08830331229883
STARLINK-3808           
1 52366U 22045AM  26161.17938679  .00000140  00000+0  26909-4 0  9995
2 52366  53.1649 133.8671 0001357  87.1447 272.9700 15.08833515229883
STARLINK-3817           
1 52367U 22045AN  26161.18674466  .00000536  00000+0  51784-4 0  9996
2 52367  53.1641 133.8327 0001289  89.4522 270.6618 15.08836233229880
STARLINK-3834           
1 52368U 22045AP  26161.16834710 -.00002922  00000+0 -16554-3 0  9993
2 52368  53.1599 133.9144 0001174  93.4908 266.6218 15.08843252229876
STARLINK-3841           
1 52369U 22045AQ  26161.18306754  .00001131  00000+0  89131-4 0  9999
2 52369  53.1636 133.8500 0001329  84.7796 275.3347 15.08832701229882
STARLINK-3827           
1 52370U 22045AR  26161.17666699 -.00000087  00000+0  12616-4 0  9991
2 52370  53.1616 133.8839 0001306  87.7010 272.4131 15.08832377229882
STARLINK-3798           
1 52371U 22045AS  26161.17298398  .00000166  00000+0  28508-4 0  9993
2 52371  53.1611 133.9004 0001237  74.1095 286.0033 15.08834006229871
STARLINK-3796           
1 52372U 22045AT  26161.16466631 -.00001593  00000+0 -82009-4 0  9993
2 52372  53.1617 133.9314 0001284  97.9930 262.1207 15.08840846229872
STARLINK-3550           
1 52373U 22045AU  26161.21986479 -.00001994  00000+0 -10723-3 0  9995
2 52373  53.1619 133.6824 0001261  88.5145 271.5991 15.08841132229892
STARLINK-3762           
1 52374U 22045AV  26161.22354845 -.00000374  00000+0 -54043-5 0  9999
2 52374  53.1637 133.6684 0001355  88.9960 271.1187 15.08830183229897
STARLINK-3785           
1 52375U 22045AW  26161.22722741 -.00000107  00000+0  11366-4 0  9997
2 52375  53.1631 133.6514 0001397  97.5395 262.5755 15.08834154229895
STARLINK-3805           
1 52377U 22045AY  26161.17205385 -.00000296  00000+0 -47391-6 0  9992
2 52377  53.1619 134.1199 0001253  88.7928 271.3207 15.08835216229871
STARLINK-3806           
1 52378U 22045AZ  26161.20882621 -.00000608  00000+0 -20120-4 0  9997
2 52378  53.1612 133.7314 0001406  67.3428 292.7712 15.08839762229897
STARLINK-3800           
1 52379U 22045BA  26161.21250502  .00000389  00000+0  42539-4 0  9998
2 52379  53.1622 133.7184 0001113  83.0219 277.0899 15.08831301229895
STARLINK-3793           
1 52380U 22045BB  26161.19135118 -.00000118  00000+0  10670-4 0  9994
2 52380  53.1631 123.8416 0001324  87.5858 272.5285 15.08829854230023
STARLINK-3799           
1 52382U 22045BD  26161.33335648  .00109922  00000+0  36797-2 0  9990
2 52382  53.2125 127.7571 0001344  58.5205 246.0745 15.30106562  5649
STARLINK-3811           
1 52383U 22045BE  26161.15822936  .00000319  00000+0  38120-4 0  9996
2 52383  53.1648 123.9895 0001244  88.7992 271.3142 15.08834540230026
STARLINK-3909           
1 52452U 22049B   26160.99536915 -.00000802  00000+0 -32308-4 0  9998
2 52452  53.1629  14.5622 0001302  96.2522 263.8618 15.08831424226042
STARLINK-3872           
1 52453U 22049C   26160.91074427  .00001392  00000+0  10557-3 0  9990
2 52453  53.1632  15.0695 0001549  63.8698 296.2453 15.08835487226039
STARLINK-3888           
1 52454U 22049D   26160.91442539  .00001268  00000+0  97770-4 0  9999
2 52454  53.1635  15.0540 0001187  88.1630 271.9497 15.08837439226033
STARLINK-3890           
1 52455U 22049E   26160.90802589  .00000127  00000+0  26101-4 0  9997
2 52455  53.1634  15.0799 0001312  70.6192 289.4941 15.08830973226032
STARLINK-3896           
1 52456U 22049F   26161.16930434 -.00000054  00000+0  14686-4 0  9993
2 52456  53.1600  13.9085 0001365 102.7640 257.3504 15.08830370226078
STARLINK-3899           
1 52457U 22049G   26160.89970428 -.00002182  00000+0 -11902-3 0  9992
2 52457  53.1639  15.1110 0001247  95.6495 264.4639 15.08843576226037
STARLINK-3898           
1 52458U 22049H   26160.89697897 -.00003597  00000+0 -20797-3 0  9992
2 52458  53.1635  15.1327 0001213  85.3126 274.8004 15.08842364226039
STARLINK-3856           
1 52459U 22049J   26161.27967218  .00004442  00000+0  29721-3 0  9997
2 52459  53.1635   3.4130 0001232  92.0319 268.0814 15.08814446226227
STARLINK-3900           
1 52461U 22049L   26160.81322317  .00000118  00000+0  25521-4 0  9995
2 52461  53.1651 355.5095 0001282  88.3257 271.7881 15.08836328226298
STARLINK-3903           
1 52462U 22049M   26161.27326672  .00000595  00000+0  55465-4 0  9994
2 52462  53.1621   3.4501 0001160  86.7694 273.3430 15.08831963226220
