OBJECT_NAME,OBJECT_ID,EPOCH,MEAN_MOTION,ECCENTRICITY,INCLINATION,RA_OF_ASC_NODE,ARG_OF_PERICENTER,MEAN_ANOMALY,EPHEMERIS_TYPE,CLASSIFICATION_TYPE,NORAD_CAT_ID,ELEMENT_SET_NO,REV_AT_EPOCH,BSTAR,MEAN_MOTION_DOT,MEAN_MOTION_DDOT
STARLINK-3848,2022-045AH,2026-06-10T04:34:13.446624,15.08828233,.00015831,53.1627,133.8163,75.4173,284.6994,0,U,52362,999,22988,.13650703E-4,-.71E-6,0
STARLINK-3830,2022-045AJ,2026-06-10T03:18:41.953248,15.08829034,.00012218,53.1616,144.0498,84.8576,275.2555,0,U,52363,999,22974,-.84699637E-4,-.1635E-4,0
STARLINK-3820,2022-045AK,2026-06-10T04:13:00.049728,15.08836473,.0001612,53.1632,133.7918,88.4717,271.6459,0,U,52364,999,22988,.89058859E-4,.1129E-4,0
STARLINK-3874,2022-045AL,2026-06-10T04:44:48.350976,15.08830331,.00011556,53.1642,133.7820,89.4563,270.6561,0,U,52365,999,22988,-.37028865E-4,-.877E-5,0
STARLINK-3808,2022-045AM,2026-06-10T04:18:19.018656,15.08833515,.00013572,53.1649,133.8671,87.1447,272.9700,0,U,52366,999,22988,.26909404E-4,.14E-5,0
STARLINK-3817,2022-045AN,2026-06-10T04:28:54.738624,15.08836233,.00012895,53.1641,133.8327,89.4522,270.6618,0,U,52367,999,22988,.51783607E-4,.536E-5,0
STARLINK-3834,2022-045AP,2026-06-10T04:02:25.189440,15.08843252,.00011743,53.1599,133.9144,93.4908,266.6218,0,U,52368,999,22987,-.16554109E-3,-.2922E-4,0
STARLINK-3841,2022-045AQ,2026-06-10T04:23:37.035456,15.08832701,.00013294,53.1636,133.8500,84.7796,275.3347,0,U,52369,999,22988,.89130761E-4,.1131E-4,0
STARLINK-3827,2022-045AR,2026-06-10T04:14:24.027936,15.08832377,.0001306,53.1616,133.8839,87.7010,272.4131,0,U,52370,999,22988,.12615951E-4,-.87E-6,0
STARLINK-3798,2022-045AS,2026-06-10T04:09:05.815872,15.08834006,.0001237,53.1611,133.9004,74.1095,286.0033,0,U,52371,999,22987,.28508353E-4,.166E-5,0
STARLINK-3796,2022-045AT,2026-06-10T03:57:07.169184,15.08840846,.00012846,53.1617,133.9314,97.9930,262.1207,0,U,52372,999,22987,-.82009253E-4,-.1593E-4,0
STARLINK-3550,2022-045AU,2026-06-10T05:16:36.317856,15.08841132,.00012613,53.1619,133.6824,88.5145,271.5991,0,U,52373,999,22989,-.10723065E-3,-.1994E-4,0
STARLINK-3762,2022-045AV,2026-06-10T05:21:54.586080,15.08830183,.00013552,53.1637,133.6684,88.9960,271.1187,0,U,52374,999,22989,-.5404311E-5,-.374E-5,0
STARLINK-3785,2022-045AW,2026-06-10T05:27:12.448224,15.08834154,.00013977,53.1631,133.6514,97.5395,262.5755,0,U,52375,999,22989,.11365978E-4,-.107E-5,0
STARLINK-3805,2022-045AY,2026-06-10T04:07:45.452640,15.08835216,.00012531,53.1619,134.1199,88.7928,271.3207,0,U,52377,999,22987,-.473907E-6,-.296E-5,0
STARLINK-3806,2022-045AZ,2026-06-10T05:00:42.584544,15.08839762,.00014064,53.1612,133.7314,67.3428,292.7712,0,U,52378,999,22989,-.20119937E-4,-.608E-5,0
STARLINK-3800,2022-045BA,2026-06-10T05:06:00.433728,15.08831301,.00011138,53.1622,133.7184,83.0219,277.0899,0,U,52379,999,22989,.42539463E-4,.389E-5,0
STARLINK-3793,2022-045BB,2026-06-10T04:35:32.741952,15.08829854,.00013247,53.1631,123.8416,87.5858,272.5285,0,U,52380,999,23002,.1067007E-4,-.118E-5,0
STARLINK-3799,2022-045BD,2026-06-10T08:00:01.999872,15.30106562,.00013446,53.2125,127.7571,58.5205,246.0745,0,U,52382,999,564,.36796678E-2,.109922E-2,0
STARLINK-3811,2022-045BE,2026-06-10T03:47:51.016704,15.08834540,.00012444,53.1648,123.9895,88.7992,271.3142,0,U,52383,999,23002,.38120246E-4,.319E-5,0
STARLINK-3909,2022-049B,2026-06-09T23:53:19.894560,15.08831424,.00013028,53.1629,14.5622,96.2522,263.8618,0,U,52452,999,22604,-.32308339E-4,-.802E-5,0
STARLINK-3872,2022-049C,2026-06-09T21:51:28.304928,15.08835487,.00015492,53.1632,15.0695,63.8698,296.2453,0,U,52453,999,22603,.1055716E-3,.1392E-4,0
STARLINK-3888,2022-049D,2026-06-09T21:56:46.353696,15.08837439,.00011875,53.1635,15.0540,88.1630,271.9497,0,U,52454,999,22603,.97770403E-4,.1268E-4,0
STARLINK-3890,2022-049E,2026-06-09T21:47:33.436896,15.08830973,.00013125,53.1634,15.0799,70.6192,289.4941,0,U,52455,999,22603,.26100824E-4,.127E-5,0
STARLINK-3896,2022-049F,2026-06-10T04:03:47.894976,15.08830370,.00013655,53.1600,13.9085,102.7640,257.3504,0,U,52456,999,22607,.14685886E-4,-.54E-6,0
STARLINK-3899,2022-049G,2026-06-09T21:35:34.449792,15.08843576,.00012474,53.1639,15.1110,95.6495,264.4639,0,U,52457,999,22603,-.11901775E-3,-.2182E-4,0
STARLINK-3898,2022-049H,2026-06-09T21:31:38.983008,15.08842364,.00012135,53.1635,15.1327,85.3126,274.8004,0,U,52458,999,22603,-.20796732E-3,-.3597E-4,0
STARLINK-3856,2022-049J,2026-06-10T06:42:43.676352,15.08814446,.00012329,53.1635,3.4130,92.0319,268.0814,0,U,52459,999,22622,.29720547E-3,.4442E-4,0
STARLINK-3900,2022-049L,2026-06-09T19:31:02.481888,15.08836328,.0001282,53.1651,355.5095,88.3257,271.7881,0,U,52461,999,22629,.25521E-4,.118E-5,0
STARLINK-3903,2022-049M,2026-06-10T06:33:30.244608,15.08831963,.000116,53.1621,3.4501,86.7694,273.3430,0,U,52462,999,22622,.55465489E-4,.595E-5,0
